STARLINK-30121          
1 56695U 23067H   25327.49482823  .00000515  00000+0  53227-4 0  9991
2 56695  43.0007 131.6390 0001080 275.4511  84.6209 15.02531777139688
STARLINK-30130          
1 56697U 23067K   25327.53466742  .00001188  00000+0  10293-3 0  9992
2 56697  43.0013 131.0941 0001386 253.0330 107.0360 15.02549644139436
STARLINK-30068          
1 56698U 23067L   25327.47510874  .00000192  00000+0  29265-4 0  9996
2 56698  43.0032 118.5178 0001565 247.1618 112.9059 15.02540828139572
STARLINK-30127          
1 56699U 23067M   25327.75740963 -.00001047  00000+0 -62421-4 0  9995
2 56699  43.0027 130.1902 0001294 269.1859  90.8835 15.02529125139722
STARLINK-30053          
1 56700U 23067N   25327.48816949  .00000117  00000+0  23775-4 0  9990
2 56700  43.0037 131.6124 0001440 263.6921  96.3757 15.02533579139687
STARLINK-30125          
1 56701U 23067P   25327.48483972 -.00000447  00000+0 -18002-4 0  9992
2 56701  43.0028 131.5863 0001204 267.0500  93.0204 15.02534904139680
STARLINK-30117          
1 56702U 23067Q   25327.52142544  .00009672  00000+0  72900-3 0  9998
2 56702  42.9927 131.7807 0002007 191.6249 168.4547 15.02591225139687
STARLINK-30132          
1 56703U 23067R   25327.48151125  .00000278  00000+0  35628-4 0  9999
2 56703  43.0011 131.5507 0001165 236.6494 123.4237 15.02530705139688
STARLINK-30066          
1 56704U 23067S   25327.46152878  .00000315  00000+0  38365-4 0  9997
2 56704  43.0037 131.3937 0001485 263.7256  96.3417 15.02535491139689
STARLINK-30080          
1 56705U 23067T   25327.47178735  .00000479  00000+0  50540-4 0  9999
2 56705  43.0018 118.5591 0001467 265.3168  94.7507 15.02535284139831
STARLINK-30079          
1 56706U 23067U   25327.54130517  .00000742  00000+0  69955-4 0  9997
2 56706  43.0041 131.1486 0001978 281.7925  78.2696 15.02547321139697
STARLINK-30070          
1 56707U 23067V   25327.47818088 -.00000130  00000+0  54490-5 0  9997
2 56707  43.0031 131.5347 0001638 254.5687 105.4974 15.02537706139680
STARLINK-30071          
1 56708U 23067W   25327.53133823 -.00000433  00000+0 -16996-4 0  9997
2 56708  43.0027 131.0697 0001279 265.3876  94.6820 15.02532278139699
STARLINK-30085          
1 56709U 23067X   25327.47151009  .00001509  00000+0  12673-3 0  9997
2 56709  43.0025 131.4839 0000855 245.8100 114.2653 15.02544217139422
ONEWEB-0561             
1 56710U 23068A   25327.51809500 -.00000017  00000+0 -73559-4 0  9997
2 56710  87.9179 315.4687 0002053 100.8923 259.2442 13.20773068122357
ONEWEB-0668             
1 56711U 23068B   25327.78112707 -.00000045  00000+0 -15182-3 0  9991
2 56711  87.9042 269.6568 0001615  59.9929 300.1362 13.16589045124756
ONEWEB-0676             
1 56712U 23068C   25327.78906905 -.00000043  00000+0 -14614-3 0  9990
2 56712  87.9028 269.6798 0001927  80.9825 279.1523 13.16593994124674
ONEWEB-0677             
1 56713U 23068D   25327.50702963 -.00000041  00000+0 -13394-3 0  9991
2 56713  87.9191 315.4514 0001783  90.0886 270.0452 13.20770297122656
ONEWEB-0678             
1 56714U 23068E   25327.42491779 -.00000033  00000+0 -12143-3 0  9995
2 56714  87.8978 300.2407 0002223  86.6401 273.4983 13.15547051122230
ONEWEB-0679             
1 56715U 23068F   25327.36789647  .00000123  00000+0  28923-3 0  9994
2 56715  87.9022 269.7482 0001337  80.0987 280.0295 13.16596635124646
ONEWEB-0680             
1 56716U 23068G   25327.42952147 -.00000043  00000+0 -13678-3 0  9993
2 56716  87.9200 285.0005 0001453  69.2139 290.9151 13.21826849123913
ONEWEB-0681             
1 56717U 23068H   25327.40895245  .00000038  00000+0  60574-4 0  9997
2 56717  87.9199 285.0210 0001804 115.2928 244.8393 13.21828545123907
ONEWEB-0682             
1 56718U 23068J   25327.45106171  .00000049  00000+0  97107-4 0  9990
2 56718  87.8969 300.2514 0001456  77.1507 282.9786 13.15550149122409
ONEWEB-0683             
1 56719U 23068K   25327.47246062  .00000035  00000+0  57858-4 0  9991
2 56719  87.8982 300.2293 0001726  74.7478 285.3843 13.15548233122377
ONEWEB-0684             
1 56720U 23068L   25327.48038095 -.00000082  00000+0 -25106-3 0  9993
2 56720  87.8979 300.2227 0003300  76.3739 283.7759 13.15550172122205
ONEWEB-0686             
1 56721U 23068M   25327.83335647  .00011707  00000+0  31248-1 0  9992
2 56721  87.9028 269.6904 0001999  68.5331 308.6783 13.15055827  5127
ONEWEB-0694             
1 56722U 23068N   25327.79065094 -.00000072  00000+0 -22177-3 0  9992
2 56722  87.9037 269.6390 0001608  65.8201 294.3098 13.16592865124749
ONEWEB-0696             
1 56723U 23068P   25327.43759832  .00000052  00000+0  10395-3 0  9999
2 56723  87.8967 300.2856 0002267  86.6040 273.5350 13.15547859122317
ONEWEB-0703             
1 56724U 23068Q   25327.44711125  .00000031  00000+0  47524-4 0  9996
2 56724  87.8967 300.2660 0002730  99.9716 260.1722 13.15548936122203
ONEWEB-0721             
1 56725U 23068R   25327.57268124  .00000088  00000+0  17761-3 0  9998
2 56725  86.6794 151.1021 0001451  89.3158 270.8141 13.22452657130760
IRIDIUM 181             
1 56726U 23068S   25327.54482344  .00000138  00000+0  35103-4 0  9995
2 56726  86.4502 142.7427 0002623  95.7014 264.4486 14.43308796132778
IRIDIUM 177             
1 56727U 23068T   25327.74621441  .00001640  00000+0  21245-3 0  9991
2 56727  86.1969  66.3486 0002348  88.2596 271.8894 14.80218482135978
IRIDIUM 174             
1 56728U 23068U   25327.75439897  .00001218  00000+0  18920-3 0  9992
2 56728  86.6093  79.5816 0002289  88.8454 271.3025 14.72264309135799
IRIDIUM 178             
1 56729U 23068V   25327.46478322  .00000899  00000+0  11493-3 0  9999
2 56729  86.6522 111.3516 0001987  96.8867 263.2580 14.80234582135931
IRIDIUM 179             
1 56730U 23068W   25327.45943041  .00001555  00000+0  20117-3 0  9998
2 56730  86.6764 119.7192 0002316 103.7404 256.4076 14.80237345135939
2023-069A               
1 56731U 23069A   25327.44957507  .00015449  00000+0  36984-3 0  9997
2 56731  40.9973 323.0115 0034924 260.3596  99.3281 15.40454424141296
2023-069B               
1 56732U 23069B   25327.83887620  .00004565  00000+0  28729-3 0  9994
2 56732  41.0070 154.8742 0001856 280.4140  79.6463 15.09924480139175
NEXTSAT-2               
1 56743U 23072A   25327.82804552  .00007232  00000+0  29787-3 0  9991
2 56743  97.5297 158.2833 0007081  34.8646 325.3054 15.24392746138279
SNIPE 4                 
1 56744U 23072B   25327.80569770  .00017219  00000+0  53897-3 0  9995
2 56744  97.5384 163.4301 0006621 354.0336   6.0826 15.33164843138542
SNIPE 2                 
1 56745U 23072C   25327.85569932  .00021174  00000+0  61195-3 0  9996
2 56745  97.5400 165.4065 0006490  25.2815 334.8745 15.35647201138610
2023-072D               
1 56746U 23072D   25327.83831799  .00036267  00000+0  75746-3 0  9994
2 56746  97.5153 168.5859 0004198   8.9984 351.1339 15.45423374138928
2023-072E               
1 56747U 23072E   25327.85942427  .00019841  00000+0  54482-3 0  9991
2 56747  97.5215 165.6560 0005331  19.4031 340.7415 15.37266488138724
2023-072F               
1 56748U 23072F   25327.83561432  .00009413  00000+0  35998-3 0  9998
2 56748  97.5168 158.7094 0007228  32.6452 327.5231 15.26787368138393
2023-072G               
1 56749U 23072G   25327.83394354  .00022946  00000+0  60421-3 0  9991
2 56749  97.5057 164.1051 0005554  19.3337 340.8118 15.38532875138766
TROPICS-03              
1 56753U 23073B   25327.46759713  .00434394  00000+0  18195-2 0  9994
2 56753  32.7268  18.4310 0005598 139.8853 220.2252 15.83389705139712
KONDOR-FKA NO. 1        
1 56756U 23074A   25327.45860391  .00005040  00000+0  23874-3 0  9995
2 56756  97.4389 159.9669 0001710  80.8266 279.3162 15.19767653138445
ARABSAT-7B (BADR-8)     
1 56757U 23075A   25327.73314397  .00000165  00000+0  00000+0 0  9993
2 56757   0.0794  28.8060 0002707 301.7601  22.3384  1.00271666  9055
NVS-01 (IRNSS-1J)       
1 56759U 23076A   25327.75368410 -.00000314  00000+0  00000+0 0  9990
2 56759   2.6679 252.2792 0008094   2.6806 208.9421  1.00273186  9054
STARLINK-6197           
1 56767U 23078A   25327.21342614  .00034589  00000+0  20204-2 0  9991
2 56767  69.9936 265.0592 0007911 286.0500  73.9795 15.11731036136438
STARLINK-6198           
1 56768U 23078B   25327.78500345 -.00000626  00000+0 -44699-4 0  9994
2 56768  69.9992 231.3401 0003067 269.2119  90.8689 14.98331943137318
STARLINK-6342           
1 56770U 23078D   25327.25156076 -.00001387  00000+0 -10843-3 0  9995
2 56770  70.0009 272.8250 0003201 269.4158  90.6634 14.98338737136247
STARLINK-6275           
1 56772U 23078F   25327.24722269 -.00004556  00000+0 -37417-3 0  9996
2 56772  69.9991 272.8083 0002826 271.0520  89.0315 14.98341742136242
STARLINK-6296           
1 56773U 23078G   25327.75141156 -.00000158  00000+0 -54594-5 0  9994
2 56773  69.9985 211.7306 0002990 270.3172  89.7645 14.98331655137799
STARLINK-6190           
1 56774U 23078H   25327.26809187 -.00001476  00000+0 -11596-3 0  9993
2 56774  69.9988 272.8778 0003564 278.8117  81.2638 14.98330999136242
STARLINK-6292           
1 56775U 23078J   25327.74724080 -.00000049  00000+0  36828-5 0  9996
2 56775  69.9989 211.7168 0002758 269.5058  90.5785 14.98328415137791
STARLINK-6274           
1 56776U 23078K   25327.77248860  .00001920  00000+0  16856-3 0  9992
2 56776  69.9990 231.6903 0002998 261.7373  98.3446 14.98345254137309
STARLINK-5582           
1 56777U 23078L   25327.59749678 -.00003214  00000+0 -26178-3 0  9994
2 56777  69.9991 252.1513 0002403 286.1610  73.9284 14.98321925136781
STARLINK-6304           
1 56778U 23078M   25327.76833262  .00000638  00000+0  61219-4 0  9998
2 56778  69.9994 231.6754 0002769 276.5635  83.5209 14.98333006137305
STARLINK-6231           
1 56779U 23078N   25327.14246429  .00001631  00000+0  14441-3 0  9992
2 56779  69.9988 233.0999 0002112 287.2408  72.8520 14.98332308137205
